STARLINK-34649          
1 64798U 25150J   25341.33427857 -.00023914  00000+0 -57349-3 0  9992
2 64798  70.0015   8.4800 0001998 224.6679 135.4342 15.41154715 23542
STARLINK-34662          
1 64799U 25150K   25341.08281073  .00068016  00000+0  15415-2 0  9990
2 64799  70.0000   9.2074 0002935 265.2538  94.8309 15.42740419 22617
STARLINK-34660          
1 64800U 25150L   25341.06642160  .00072927  00000+0  16497-2 0  9996
2 64800  70.0004   9.1469 0003711 268.1522  91.9235 15.42769659 22612
STARLINK-34604          
1 64801U 25150M   25340.79896338  .00109100  00000+0  24572-2 0  9991
2 64801  70.0010   9.8192 0000984 289.7001  70.4075 15.42745531 22572
STARLINK-34658          
1 64802U 25150N   25341.33336806 -.01682219  00000+0 -51942-1 0  9992
2 64802  69.9995   8.2970 0003291 276.4945 239.8816 15.36467793  5864
STARLINK-34620          
1 64803U 25150P   25341.33336806 -.01681267  00000+0 -53819-1 0  9990
2 64803  69.9997   8.2543 0003187 279.7250 273.9201 15.35347880  5862
STARLINK-34633          
1 64804U 25150Q   25341.33336806 -.01661045  00000+0 -50740-1 0  9993
2 64804  70.0000   8.1923 0003344 271.7269 336.4472 15.36760242  5855
STARLINK-34624          
1 64805U 25150R   25341.33336806 -.01576804  00000+0 -46172-1 0  9996
2 64805  70.0003   8.3965 0003478 275.8602 151.0200 15.38409640  5866
STARLINK-34664          
1 64806U 25150S   25340.79103430  .00078423  00000+0  17745-2 0  9997
2 64806  70.0007   9.7897 0002414 273.2434  86.8472 15.42741212 22576
STARLINK-34663          
1 64807U 25150T   25340.80905859  .00073282  00000+0  16617-2 0  9990
2 64807  70.0021   9.8547 0002036 317.7188  42.3837 15.42700712 22578
STARLINK-34696          
1 64808U 25150U   25341.33336806 -.01609777  00000+0 -48247-1 0  9990
2 64808  70.0001   8.3251 0003496 280.0661 209.7178 15.37769693  5915
STARLINK-34675          
1 64809U 25150V   25341.33604660  .00086080  00000+0  19457-2 0  9992
2 64809  70.0012   8.4848 0002453 268.6277  91.4624 15.42737303 22659
STARLINK-34608          
1 64810U 25150W   25341.33190172  .00061657  00000+0  13977-2 0  9996
2 64810  69.9998   8.4690 0002097 261.4932  98.6012 15.42765588 22655
STARLINK-34669          
1 64811U 25150X   25340.91458673  .00078249  00000+0  17703-2 0  9999
2 64811  69.9995   9.4169 0003431 284.0461  76.0339 15.42743439 22592
STARLINK-34644          
1 64812U 25150Y   25341.33336806 -.02620174  00000+0 -15562+0 0  9992
2 64812  70.0005   7.5041 0002446 269.1296 196.7305 15.15349897  5708
STARLINK-34685          
1 64813U 25150Z   25341.33336806 -.01675223  00000+0 -55568-1 0  9999
2 64813  69.9997   8.2512 0003159 281.6779 273.9395 15.34225070  5854
