[{"OBJECT_NAME":"STARLINK-34649","OBJECT_ID":"2025-150J","EPOCH":"2025-12-07T08:01:21.668448","MEAN_MOTION":15.41154715,"ECCENTRICITY":0.00019984,"INCLINATION":70.0015,"RA_OF_ASC_NODE":8.48,"ARG_OF_PERICENTER":224.6679,"MEAN_ANOMALY":135.4342,"EPHEMERIS_TYPE":0,"CLASSIFICATION_TYPE":"U","NORAD_CAT_ID":64798,"ELEMENT_SET_NO":999,"REV_AT_EPOCH":2354,"BSTAR":-0.00057348776,"MEAN_MOTION_DOT":-0.00023914,"MEAN_MOTION_DDOT":0},{"OBJECT_NAME":"STARLINK-34662","OBJECT_ID":"2025-150K","EPOCH":"2025-12-07T01:59:14.847072","MEAN_MOTION":15.42740419,"ECCENTRICITY":0.00029355,"INCLINATION":70,"RA_OF_ASC_NODE":9.2074,"ARG_OF_PERICENTER":265.2538,"MEAN_ANOMALY":94.8309,"EPHEMERIS_TYPE":0,"CLASSIFICATION_TYPE":"U","NORAD_CAT_ID":64799,"ELEMENT_SET_NO":999,"REV_AT_EPOCH":2261,"BSTAR":0.001541474,"MEAN_MOTION_DOT":0.00068016,"MEAN_MOTION_DDOT":0},{"OBJECT_NAME":"STARLINK-34660","OBJECT_ID":"2025-150L","EPOCH":"2025-12-07T01:35:38.826240","MEAN_MOTION":15.42769659,"ECCENTRICITY":0.00037111,"INCLINATION":70.0004,"RA_OF_ASC_NODE":9.1469,"ARG_OF_PERICENTER":268.1522,"MEAN_ANOMALY":91.9235,"EPHEMERIS_TYPE":0,"CLASSIFICATION_TYPE":"U","NORAD_CAT_ID":64800,"ELEMENT_SET_NO":999,"REV_AT_EPOCH":2261,"BSTAR":0.0016497409,"MEAN_MOTION_DOT":0.00072927,"MEAN_MOTION_DDOT":0},{"OBJECT_NAME":"STARLINK-34604","OBJECT_ID":"2025-150M","EPOCH":"2025-12-06T19:10:30.436032","MEAN_MOTION":15.42745531,"ECCENTRICITY":9.84e-5,"INCLINATION":70.001,"RA_OF_ASC_NODE":9.8192,"ARG_OF_PERICENTER":289.7001,"MEAN_ANOMALY":70.4075,"EPHEMERIS_TYPE":0,"CLASSIFICATION_TYPE":"U","NORAD_CAT_ID":64801,"ELEMENT_SET_NO":999,"REV_AT_EPOCH":2257,"BSTAR":0.0024572226,"MEAN_MOTION_DOT":0.001091,"MEAN_MOTION_DDOT":0},{"OBJECT_NAME":"STARLINK-34658","OBJECT_ID":"2025-150N","EPOCH":"2025-12-07T08:00:03.000384","MEAN_MOTION":15.36467793,"ECCENTRICITY":0.00032919,"INCLINATION":69.9995,"RA_OF_ASC_NODE":8.297,"ARG_OF_PERICENTER":276.4945,"MEAN_ANOMALY":239.8816,"EPHEMERIS_TYPE":0,"CLASSIFICATION_TYPE":"U","NORAD_CAT_ID":64802,"ELEMENT_SET_NO":999,"REV_AT_EPOCH":586,"BSTAR":-0.051941672,"MEAN_MOTION_DOT":-0.01682219,"MEAN_MOTION_DDOT":0},{"OBJECT_NAME":"STARLINK-34620","OBJECT_ID":"2025-150P","EPOCH":"2025-12-07T08:00:03.000384","MEAN_MOTION":15.3534788,"ECCENTRICITY":0.00031873,"INCLINATION":69.9997,"RA_OF_ASC_NODE":8.2543,"ARG_OF_PERICENTER":279.725,"MEAN_ANOMALY":273.9201,"EPHEMERIS_TYPE":0,"CLASSIFICATION_TYPE":"U","NORAD_CAT_ID":64803,"ELEMENT_SET_NO":999,"REV_AT_EPOCH":586,"BSTAR":-0.053819117,"MEAN_MOTION_DOT":-0.01681267,"MEAN_MOTION_DDOT":0},{"OBJECT_NAME":"STARLINK-34633","OBJECT_ID":"2025-150Q","EPOCH":"2025-12-07T08:00:03.000384","MEAN_MOTION":15.36760242,"ECCENTRICITY":0.00033444,"INCLINATION":70,"RA_OF_ASC_NODE":8.1923,"ARG_OF_PERICENTER":271.7269,"MEAN_ANOMALY":336.4472,"EPHEMERIS_TYPE":0,"CLASSIFICATION_TYPE":"U","NORAD_CAT_ID":64804,"ELEMENT_SET_NO":999,"REV_AT_EPOCH":585,"BSTAR":-0.05074012,"MEAN_MOTION_DOT":-0.01661045,"MEAN_MOTION_DDOT":0},{"OBJECT_NAME":"STARLINK-34624","OBJECT_ID":"2025-150R","EPOCH":"2025-12-07T08:00:03.000384","MEAN_MOTION":15.3840964,"ECCENTRICITY":0.00034788,"INCLINATION":70.0003,"RA_OF_ASC_NODE":8.3965,"ARG_OF_PERICENTER":275.8602,"MEAN_ANOMALY":151.02,"EPHEMERIS_TYPE":0,"CLASSIFICATION_TYPE":"U","NORAD_CAT_ID":64805,"ELEMENT_SET_NO":999,"REV_AT_EPOCH":586,"BSTAR":-0.046172124,"MEAN_MOTION_DOT":-0.01576804,"MEAN_MOTION_DDOT":0},{"OBJECT_NAME":"STARLINK-34664","OBJECT_ID":"2025-150S","EPOCH":"2025-12-06T18:59:05.363520","MEAN_MOTION":15.42741212,"ECCENTRICITY":0.00024142,"INCLINATION":70.0007,"RA_OF_ASC_NODE":9.7897,"ARG_OF_PERICENTER":273.2434,"MEAN_ANOMALY":86.8472,"EPHEMERIS_TYPE":0,"CLASSIFICATION_TYPE":"U","NORAD_CAT_ID":64806,"ELEMENT_SET_NO":999,"REV_AT_EPOCH":2257,"BSTAR":0.001774459,"MEAN_MOTION_DOT":0.00078423,"MEAN_MOTION_DDOT":0},{"OBJECT_NAME":"STARLINK-34663","OBJECT_ID":"2025-150T","EPOCH":"2025-12-06T19:25:02.662176","MEAN_MOTION":15.42700712,"ECCENTRICITY":0.00020365,"INCLINATION":70.0021,"RA_OF_ASC_NODE":9.8547,"ARG_OF_PERICENTER":317.7188,"MEAN_ANOMALY":42.3837,"EPHEMERIS_TYPE":0,"CLASSIFICATION_TYPE":"U","NORAD_CAT_ID":64807,"ELEMENT_SET_NO":999,"REV_AT_EPOCH":2257,"BSTAR":0.0016617353,"MEAN_MOTION_DOT":0.00073282,"MEAN_MOTION_DDOT":0},{"OBJECT_NAME":"STARLINK-34696","OBJECT_ID":"2025-150U","EPOCH":"2025-12-07T08:00:03.000384","MEAN_MOTION":15.37769693,"ECCENTRICITY":0.00034961,"INCLINATION":70.0001,"RA_OF_ASC_NODE":8.3251,"ARG_OF_PERICENTER":280.0661,"MEAN_ANOMALY":209.7178,"EPHEMERIS_TYPE":0,"CLASSIFICATION_TYPE":"U","NORAD_CAT_ID":64808,"ELEMENT_SET_NO":999,"REV_AT_EPOCH":591,"BSTAR":-0.048247162,"MEAN_MOTION_DOT":-0.01609777,"MEAN_MOTION_DDOT":0},{"OBJECT_NAME":"STARLINK-34675","OBJECT_ID":"2025-150V","EPOCH":"2025-12-07T08:03:54.426240","MEAN_MOTION":15.42737303,"ECCENTRICITY":0.00024538,"INCLINATION":70.0012,"RA_OF_ASC_NODE":8.4848,"ARG_OF_PERICENTER":268.6277,"MEAN_ANOMALY":91.4624,"EPHEMERIS_TYPE":0,"CLASSIFICATION_TYPE":"U","NORAD_CAT_ID":64809,"ELEMENT_SET_NO":999,"REV_AT_EPOCH":2265,"BSTAR":0.0019456965,"MEAN_MOTION_DOT":0.0008608,"MEAN_MOTION_DDOT":0},{"OBJECT_NAME":"STARLINK-34608","OBJECT_ID":"2025-150W","EPOCH":"2025-12-07T07:57:56.308608","MEAN_MOTION":15.42765588,"ECCENTRICITY":0.00020976,"INCLINATION":69.9998,"RA_OF_ASC_NODE":8.469,"ARG_OF_PERICENTER":261.4932,"MEAN_ANOMALY":98.6012,"EPHEMERIS_TYPE":0,"CLASSIFICATION_TYPE":"U","NORAD_CAT_ID":64810,"ELEMENT_SET_NO":999,"REV_AT_EPOCH":2265,"BSTAR":0.0013977334,"MEAN_MOTION_DOT":0.00061657,"MEAN_MOTION_DDOT":0},{"OBJECT_NAME":"STARLINK-34669","OBJECT_ID":"2025-150X","EPOCH":"2025-12-06T21:57:00.293472","MEAN_MOTION":15.42743439,"ECCENTRICITY":0.00034313,"INCLINATION":69.9995,"RA_OF_ASC_NODE":9.4169,"ARG_OF_PERICENTER":284.0461,"MEAN_ANOMALY":76.0339,"EPHEMERIS_TYPE":0,"CLASSIFICATION_TYPE":"U","NORAD_CAT_ID":64811,"ELEMENT_SET_NO":999,"REV_AT_EPOCH":2259,"BSTAR":0.0017702827,"MEAN_MOTION_DOT":0.00078249,"MEAN_MOTION_DDOT":0},{"OBJECT_NAME":"STARLINK-34644","OBJECT_ID":"2025-150Y","EPOCH":"2025-12-07T08:00:03.000384","MEAN_MOTION":15.15349897,"ECCENTRICITY":0.00024469,"INCLINATION":70.0005,"RA_OF_ASC_NODE":7.5041,"ARG_OF_PERICENTER":269.1296,"MEAN_ANOMALY":196.7305,"EPHEMERIS_TYPE":0,"CLASSIFICATION_TYPE":"U","NORAD_CAT_ID":64812,"ELEMENT_SET_NO":999,"REV_AT_EPOCH":570,"BSTAR":-0.15562426,"MEAN_MOTION_DOT":-0.02620174,"MEAN_MOTION_DDOT":0},{"OBJECT_NAME":"STARLINK-34685","OBJECT_ID":"2025-150Z","EPOCH":"2025-12-07T08:00:03.000384","MEAN_MOTION":15.3422507,"ECCENTRICITY":0.00031591,"INCLINATION":69.9997,"RA_OF_ASC_NODE":8.2512,"ARG_OF_PERICENTER":281.6779,"MEAN_ANOMALY":273.9395,"EPHEMERIS_TYPE":0,"CLASSIFICATION_TYPE":"U","NORAD_CAT_ID":64813,"ELEMENT_SET_NO":999,"REV_AT_EPOCH":585,"BSTAR":-0.055567957,"MEAN_MOTION_DOT":-0.01675223,"MEAN_MOTION_DDOT":0}]
